[
    {
        "Altitude(m)": 607910.9881310096,
        "Argument of Periapsis(deg)": 0.0,
        "Eccentricity": 0.0,
        "Inclination(deg)": 60.0,
        "Latitude(deg)": -14.292826349480121,
        "Longitude(deg)": 98.44265117866762,
        "Mean Anomaly(deg)": 196.36359999999996,
        "RAAN(deg)": 10.0,
        "Satellite Name": "Test1 56",
        "Satellite Number": 56,
        "Semi-Major Axis(m)": 6980739.136638005,
        "Time(s)": 0
    },
    {
        "Altitude(m)": 608060.2210006203,
        "Argument of Periapsis(deg)": 0.00010418945913296404,
        "Eccentricity": 0.0,
        "Inclination(deg)": 60.0,
        "Latitude(deg)": -14.82648768626694,
        "Longitude(deg)": 98.7312606061107,
        "Mean Anomaly(deg)": 196.9837061454618,
        "RAAN(deg)": 9.999579950860259,
        "Satellite Name": "Test1 56",
        "Satellite Number": 56,
        "Semi-Major Axis(m)": 6980739.136638005,
        "Time(s)": 10
    }
]